ONEWEB-0141             
1 47287U 20100AF  26066.39109399 -.00000016  00000+0 -80599-4 0  9997
2 47287  87.9001  10.8490 0001853  69.2687 290.8641 13.12441469251320
ONEWEB-0142             
1 47288U 20100AG  26066.53199751  .00000399  00000+0  10741-2 0  9997
2 47288  87.9006  10.8453 0002154  70.7997 289.3365 13.12443347251335
ONEWEB-0143             
1 47289U 20100AH  26066.54201111  .00000122  00000+0  30497-3 0  9998
2 47289  87.9002  10.8400 0001794  78.4785 281.6545 13.12441597251311
ONEWEB-0144             
1 47290U 20100AJ  26066.36072368  .00000356  00000+0  95394-3 0  9996
2 47290  87.9008  10.8453 0002151  81.0522 279.0850 13.12442002251215
ONEWEB-0145             
1 47291U 20100AK  26066.33193356 -.00000356  00000+0 -10236-2 0  9998
2 47291  87.8999  10.8898 0001864  81.7407 278.3933 13.12441955251407
ONEWEB-0146             
1 47292U 20100AL  26066.55723812 -.00000295  00000+0 -85614-3 0  9994
2 47292  87.9001  10.8297 0001433  82.8631 277.2660 13.12442348251344
ONEWEB-0147             
1 47293U 20100AM  26066.37091058  .00000518  00000+0  14033-2 0  9997
2 47293  87.9010  10.8469 0001950  89.0599 271.0753 13.12442917251215
ONEWEB-0115             
1 48042U 21025A   26066.25009015 -.00000239  00000+0 -68949-3 0  9994
2 48042  87.9049 340.4943 0001660  79.0088 281.1228 13.13469944240216
ONEWEB-0152             
1 48043U 21025B   26066.49216595 -.00000029  00000+0 -11520-3 0  9994
2 48043  87.9040 340.4483 0001589  80.4267 279.7042 13.13469888240205
ONEWEB-0153             
1 48044U 21025C   26066.47016170 -.00000180  00000+0 -52720-3 0  9995
2 48044  87.9039 340.4579 0001759  77.9942 282.1384 13.13469767240191
ONEWEB-0154             
1 48045U 21025D   26066.31441644 -.00000217  00000+0 -63016-3 0  9998
2 48045  87.9036 340.4868 0001725  82.6015 277.5310 13.13470637240136
ONEWEB-0116             
1 48046U 21025E   26066.27717962  .00000346  00000+0  91325-3 0  9998
2 48046  87.9055 340.4806 0001560  82.0540 278.0766 13.13469792240270
ONEWEB-0150             
1 48047U 21025F   26066.25347589 -.00000191  00000+0 -55898-3 0  9996
2 48047  87.9052 340.4838 0001775  72.8794 287.2530 13.13470057240164
ONEWEB-0107             
1 48048U 21025G   26066.48370093 -.00000172  00000+0 -50521-3 0  9995
2 48048  87.9048 340.4334 0001995  75.9481 284.1870 13.13469693240170
ONEWEB-0101             
1 48049U 21025H   26066.44646944  .00000263  00000+0  68573-3 0  9998
2 48049  87.9039 340.4671 0001868  80.8197 279.3143 13.13469193240144
ONEWEB-0113             
1 48050U 21025J   26066.27764498  .00000314  00000+0  82049-3 0  9997
2 48050  87.9043 340.4200 0001312  83.1558 276.9720 13.13949871240229
ONEWEB-0112             
1 48051U 21025K   26066.26024961 -.00000037  00000+0 -13570-3 0  9998
2 48051  87.9051 340.4752 0001983  82.3395 277.7959 13.13470801240219
