[{"OBJECT_NAME":"ONEWEB-0141","OBJECT_ID":"2020-100AF","EPOCH":"2026-03-07T09:23:10.520736","MEAN_MOTION":13.12441469,"ECCENTRICITY":0.00018539,"INCLINATION":87.9001,"RA_OF_ASC_NODE":10.849,"ARG_OF_PERICENTER":69.2687,"MEAN_ANOMALY":290.8641,"EPHEMERIS_TYPE":0,"CLASSIFICATION_TYPE":"U","NORAD_CAT_ID":47287,"ELEMENT_SET_NO":999,"REV_AT_EPOCH":25132,"BSTAR":-8.0599401e-5,"MEAN_MOTION_DOT":-1.6e-7,"MEAN_MOTION_DDOT":0},{"OBJECT_NAME":"ONEWEB-0142","OBJECT_ID":"2020-100AG","EPOCH":"2026-03-07T12:46:04.584864","MEAN_MOTION":13.12443347,"ECCENTRICITY":0.0002154,"INCLINATION":87.9006,"RA_OF_ASC_NODE":10.8453,"ARG_OF_PERICENTER":70.7997,"MEAN_ANOMALY":289.3365,"EPHEMERIS_TYPE":0,"CLASSIFICATION_TYPE":"U","NORAD_CAT_ID":47288,"ELEMENT_SET_NO":999,"REV_AT_EPOCH":25133,"BSTAR":0.0010741268,"MEAN_MOTION_DOT":3.99e-6,"MEAN_MOTION_DDOT":0},{"OBJECT_NAME":"ONEWEB-0143","OBJECT_ID":"2020-100AH","EPOCH":"2026-03-07T13:00:29.759904","MEAN_MOTION":13.12441597,"ECCENTRICITY":0.00017945,"INCLINATION":87.9002,"RA_OF_ASC_NODE":10.84,"ARG_OF_PERICENTER":78.4785,"MEAN_ANOMALY":281.6545,"EPHEMERIS_TYPE":0,"CLASSIFICATION_TYPE":"U","NORAD_CAT_ID":47289,"ELEMENT_SET_NO":999,"REV_AT_EPOCH":25131,"BSTAR":0.00030496591,"MEAN_MOTION_DOT":1.22e-6,"MEAN_MOTION_DDOT":0},{"OBJECT_NAME":"ONEWEB-0144","OBJECT_ID":"2020-100AJ","EPOCH":"2026-03-07T08:39:26.525952","MEAN_MOTION":13.12442002,"ECCENTRICITY":0.0002151,"INCLINATION":87.9008,"RA_OF_ASC_NODE":10.8453,"ARG_OF_PERICENTER":81.0522,"MEAN_ANOMALY":279.085,"EPHEMERIS_TYPE":0,"CLASSIFICATION_TYPE":"U","NORAD_CAT_ID":47290,"ELEMENT_SET_NO":999,"REV_AT_EPOCH":25121,"BSTAR":0.0009539435,"MEAN_MOTION_DOT":3.56e-6,"MEAN_MOTION_DDOT":0},{"OBJECT_NAME":"ONEWEB-0145","OBJECT_ID":"2020-100AK","EPOCH":"2026-03-07T07:57:59.059584","MEAN_MOTION":13.12441955,"ECCENTRICITY":0.00018647,"INCLINATION":87.8999,"RA_OF_ASC_NODE":10.8898,"ARG_OF_PERICENTER":81.7407,"MEAN_ANOMALY":278.3933,"EPHEMERIS_TYPE":0,"CLASSIFICATION_TYPE":"U","NORAD_CAT_ID":47291,"ELEMENT_SET_NO":999,"REV_AT_EPOCH":25140,"BSTAR":-0.0010236064,"MEAN_MOTION_DOT":-3.56e-6,"MEAN_MOTION_DDOT":0},{"OBJECT_NAME":"ONEWEB-0146","OBJECT_ID":"2020-100AL","EPOCH":"2026-03-07T13:22:25.373568","MEAN_MOTION":13.12442348,"ECCENTRICITY":0.00014335,"INCLINATION":87.9001,"RA_OF_ASC_NODE":10.8297,"ARG_OF_PERICENTER":82.8631,"MEAN_ANOMALY":277.266,"EPHEMERIS_TYPE":0,"CLASSIFICATION_TYPE":"U","NORAD_CAT_ID":47292,"ELEMENT_SET_NO":999,"REV_AT_EPOCH":25134,"BSTAR":-0.00085614219,"MEAN_MOTION_DOT":-2.95e-6,"MEAN_MOTION_DDOT":0},{"OBJECT_NAME":"ONEWEB-0147","OBJECT_ID":"2020-100AM","EPOCH":"2026-03-07T08:54:06.674112","MEAN_MOTION":13.12442917,"ECCENTRICITY":0.00019509,"INCLINATION":87.901,"RA_OF_ASC_NODE":10.8469,"ARG_OF_PERICENTER":89.0599,"MEAN_ANOMALY":271.0753,"EPHEMERIS_TYPE":0,"CLASSIFICATION_TYPE":"U","NORAD_CAT_ID":47293,"ELEMENT_SET_NO":999,"REV_AT_EPOCH":25121,"BSTAR":0.0014032784,"MEAN_MOTION_DOT":5.18e-6,"MEAN_MOTION_DDOT":0},{"OBJECT_NAME":"ONEWEB-0115","OBJECT_ID":"2021-025A","EPOCH":"2026-03-07T06:00:07.788960","MEAN_MOTION":13.13469944,"ECCENTRICITY":0.000166,"INCLINATION":87.9049,"RA_OF_ASC_NODE":340.4943,"ARG_OF_PERICENTER":79.0088,"MEAN_ANOMALY":281.1228,"EPHEMERIS_TYPE":0,"CLASSIFICATION_TYPE":"U","NORAD_CAT_ID":48042,"ELEMENT_SET_NO":999,"REV_AT_EPOCH":24021,"BSTAR":-0.00068949,"MEAN_MOTION_DOT":-2.39e-6,"MEAN_MOTION_DDOT":0},{"OBJECT_NAME":"ONEWEB-0152","OBJECT_ID":"2021-025B","EPOCH":"2026-03-07T11:48:43.138080","MEAN_MOTION":13.13469888,"ECCENTRICITY":0.00015898,"INCLINATION":87.904,"RA_OF_ASC_NODE":340.4483,"ARG_OF_PERICENTER":80.4267,"MEAN_ANOMALY":279.7042,"EPHEMERIS_TYPE":0,"CLASSIFICATION_TYPE":"U","NORAD_CAT_ID":48043,"ELEMENT_SET_NO":999,"REV_AT_EPOCH":24020,"BSTAR":-0.00011519602,"MEAN_MOTION_DOT":-2.9e-7,"MEAN_MOTION_DDOT":0},{"OBJECT_NAME":"ONEWEB-0153","OBJECT_ID":"2021-025C","EPOCH":"2026-03-07T11:17:01.970880","MEAN_MOTION":13.13469767,"ECCENTRICITY":0.0001759,"INCLINATION":87.9039,"RA_OF_ASC_NODE":340.4579,"ARG_OF_PERICENTER":77.9942,"MEAN_ANOMALY":282.1384,"EPHEMERIS_TYPE":0,"CLASSIFICATION_TYPE":"U","NORAD_CAT_ID":48044,"ELEMENT_SET_NO":999,"REV_AT_EPOCH":24019,"BSTAR":-0.00052719985,"MEAN_MOTION_DOT":-1.8e-6,"MEAN_MOTION_DDOT":0},{"OBJECT_NAME":"ONEWEB-0154","OBJECT_ID":"2021-025D","EPOCH":"2026-03-07T07:32:45.580416","MEAN_MOTION":13.13470637,"ECCENTRICITY":0.0001725,"INCLINATION":87.9036,"RA_OF_ASC_NODE":340.4868,"ARG_OF_PERICENTER":82.6015,"MEAN_ANOMALY":277.531,"EPHEMERIS_TYPE":0,"CLASSIFICATION_TYPE":"U","NORAD_CAT_ID":48045,"ELEMENT_SET_NO":999,"REV_AT_EPOCH":24013,"BSTAR":-0.00063016,"MEAN_MOTION_DOT":-2.17e-6,"MEAN_MOTION_DDOT":0},{"OBJECT_NAME":"ONEWEB-0116","OBJECT_ID":"2021-025E","EPOCH":"2026-03-07T06:39:08.319168","MEAN_MOTION":13.13469792,"ECCENTRICITY":0.000156,"INCLINATION":87.9055,"RA_OF_ASC_NODE":340.4806,"ARG_OF_PERICENTER":82.054,"MEAN_ANOMALY":278.0766,"EPHEMERIS_TYPE":0,"CLASSIFICATION_TYPE":"U","NORAD_CAT_ID":48046,"ELEMENT_SET_NO":999,"REV_AT_EPOCH":24027,"BSTAR":0.00091325,"MEAN_MOTION_DOT":3.46e-6,"MEAN_MOTION_DDOT":0},{"OBJECT_NAME":"ONEWEB-0150","OBJECT_ID":"2021-025F","EPOCH":"2026-03-07T06:05:00.316896","MEAN_MOTION":13.13470057,"ECCENTRICITY":0.0001775,"INCLINATION":87.9052,"RA_OF_ASC_NODE":340.4838,"ARG_OF_PERICENTER":72.8794,"MEAN_ANOMALY":287.253,"EPHEMERIS_TYPE":0,"CLASSIFICATION_TYPE":"U","NORAD_CAT_ID":48047,"ELEMENT_SET_NO":999,"REV_AT_EPOCH":24016,"BSTAR":-0.00055898,"MEAN_MOTION_DOT":-1.91e-6,"MEAN_MOTION_DDOT":0},{"OBJECT_NAME":"ONEWEB-0107","OBJECT_ID":"2021-025G","EPOCH":"2026-03-07T11:36:31.760352","MEAN_MOTION":13.13469693,"ECCENTRICITY":0.00019958,"INCLINATION":87.9048,"RA_OF_ASC_NODE":340.4334,"ARG_OF_PERICENTER":75.9481,"MEAN_ANOMALY":284.187,"EPHEMERIS_TYPE":0,"CLASSIFICATION_TYPE":"U","NORAD_CAT_ID":48048,"ELEMENT_SET_NO":999,"REV_AT_EPOCH":24017,"BSTAR":-0.00050520638,"MEAN_MOTION_DOT":-1.72e-6,"MEAN_MOTION_DDOT":0},{"OBJECT_NAME":"ONEWEB-0101","OBJECT_ID":"2021-025H","EPOCH":"2026-03-07T10:42:54.959616","MEAN_MOTION":13.13469193,"ECCENTRICITY":0.0001868,"INCLINATION":87.9039,"RA_OF_ASC_NODE":340.4671,"ARG_OF_PERICENTER":80.8197,"MEAN_ANOMALY":279.3143,"EPHEMERIS_TYPE":0,"CLASSIFICATION_TYPE":"U","NORAD_CAT_ID":48049,"ELEMENT_SET_NO":999,"REV_AT_EPOCH":24014,"BSTAR":0.00068573114,"MEAN_MOTION_DOT":2.63e-6,"MEAN_MOTION_DDOT":0},{"OBJECT_NAME":"ONEWEB-0113","OBJECT_ID":"2021-025J","EPOCH":"2026-03-07T06:39:48.526272","MEAN_MOTION":13.13949871,"ECCENTRICITY":0.0001312,"INCLINATION":87.9043,"RA_OF_ASC_NODE":340.42,"ARG_OF_PERICENTER":83.1558,"MEAN_ANOMALY":276.972,"EPHEMERIS_TYPE":0,"CLASSIFICATION_TYPE":"U","NORAD_CAT_ID":48050,"ELEMENT_SET_NO":999,"REV_AT_EPOCH":24022,"BSTAR":0.00082049,"MEAN_MOTION_DOT":3.14e-6,"MEAN_MOTION_DDOT":0},{"OBJECT_NAME":"ONEWEB-0112","OBJECT_ID":"2021-025K","EPOCH":"2026-03-07T06:14:45.566304","MEAN_MOTION":13.13470801,"ECCENTRICITY":0.0001983,"INCLINATION":87.9051,"RA_OF_ASC_NODE":340.4752,"ARG_OF_PERICENTER":82.3395,"MEAN_ANOMALY":277.7959,"EPHEMERIS_TYPE":0,"CLASSIFICATION_TYPE":"U","NORAD_CAT_ID":48051,"ELEMENT_SET_NO":999,"REV_AT_EPOCH":24021,"BSTAR":-0.0001357,"MEAN_MOTION_DOT":-3.7e-7,"MEAN_MOTION_DDOT":0}]
